QIANFAN-60              
1 62790U 25016F   25229.62988022  .00000096  00000+0  12962-3 0  9992
2 62790  88.9805 115.1947 0014728 330.4128  29.6188 13.50960382 31415
QIANFAN-61              
1 62791U 25016G   25229.56833626  .00000102  00000+0  13914-3 0  9991
2 62791  88.9873 115.2792 0014127 329.5247  30.5082 13.50966184 31425
QIANFAN-62              
1 62792U 25016H   25229.57231490  .00000093  00000+0  12495-3 0  9996
2 62792  88.9820 115.2106 0015527 329.1770  30.8468 13.50960095 31414
QIANFAN-63              
1 62793U 25016J   25229.58470428  .00000081  00000+0  10744-3 0  9996
2 62793  88.9826 115.1501 0015490 333.9285  26.1084 13.50957158 31454
QIANFAN-64              
1 62794U 25016K   25229.57641304  .00000097  00000+0  13111-3 0  9997
2 62794  88.9813 115.1468 0013131 328.5726  31.4639 13.50959699 31449
QIANFAN-65              
1 62795U 25016L   25229.56004620  .00000097  00000+0  13248-3 0  9992
2 62795  88.9809 115.1757 0013365 330.3985  29.6408 13.50963660 31427
QIANFAN-66              
1 62796U 25016M   25229.58875578  .00000087  00000+0  11599-3 0  9999
2 62796  88.9828 115.1199 0014334 325.1087  34.9123 13.50958739 31470
QIANFAN-67              
1 62797U 25016N   25229.59290753  .00000092  00000+0  12354-3 0  9993
2 62797  88.9819 115.1565 0014553 332.2222  27.8151 13.50967450 31440
QIANFAN-68              
1 62798U 25016P   25229.59698654  .00000097  00000+0  13135-3 0  9999
2 62798  88.9822 115.2001 0015113 330.1213  29.9074 13.50964886 31426
QIANFAN-69              
1 62799U 25016Q   25229.60109102  .00000095  00000+0  12844-3 0  9991
2 62799  88.9800 115.0913 0015311 331.0547  28.9753 13.50960469 31463
QIANFAN-70              
1 62800U 25016R   25229.61758884  .00000084  00000+0  11222-3 0  9999
2 62800  88.9822 115.2032 0014566 321.2277  38.7828 13.50964300 31422
QIANFAN-71              
1 62801U 25016S   25229.61355657  .00000088  00000+0  11821-3 0  9990
2 62801  88.9816 115.1903 0015353 334.6803  25.3594 13.50964085 31422
QIANFAN-72              
1 62802U 25016T   25229.60933190  .00000092  00000+0  12446-3 0  9993
2 62802  88.9806 115.2107 0018970 339.8964  20.1438 13.50959517 31415
QIANFAN-73              
1 63159U 25046A   25229.58299729  .00000144  00000+0  20460-3 0  9995
2 63159  88.9864 332.1038 0017014 103.4132 256.8917 13.50962858 31599
QIANFAN-74              
1 63160U 25046B   25229.56651751  .00000156  00000+0  22262-3 0  9997
2 63160  88.9863 331.9940 0001992 107.7238 252.4131 13.50967924 31657
QIANFAN-75              
1 63161U 25046C   25229.55424720  .00000141  00000+0  19995-3 0  9994
2 63161  88.9865 332.2271 0018176 106.3135 254.0017 13.50964104 31528
QIANFAN-76              
1 63162U 25046D   25229.54999924  .00000154  00000+0  21979-3 0  9996
2 63162  88.9864 332.2087 0015744 106.9849 253.3029 13.50960683 31533
QIANFAN-77              
1 63163U 25046E   25229.56947258  .00000356  00000+0  24958-3 0  9996
2 63163  88.9861 331.1748 0016882  89.1005 271.2105 13.96017344 32108
QIANFAN-78              
1 63164U 25046F   25229.51718323  .00000145  00000+0  20497-3 0  9991
2 63164  88.9863 332.0773 0017115 109.1011 251.1995 13.50963831 31608
QIANFAN-79              
1 63165U 25046G   25229.54587777  .00000159  00000+0  22788-3 0  9992
2 63165  88.9867 332.1773 0016801 107.5324 252.7665 13.50966044 31558
QIANFAN-80              
1 63166U 25046H   25229.56244918  .00000152  00000+0  21607-3 0  9994
2 63166  88.9864 331.8858 0015793 111.2876 248.9963 13.50966070 31714
QIANFAN-81              
1 63167U 25046J   25229.54184945  .00000154  00000+0  22003-3 0  9999
2 63167  88.9864 331.9564 0016760 101.1073 259.1964 13.50964752 31666
QIANFAN-82              
1 63168U 25046K   25229.57465840  .00000160  00000+0  22932-3 0  9997
2 63168  88.9864 331.9965 0014931 108.0646 252.2133 13.50961717 31651
QIANFAN-83              
1 63169U 25046L   25229.51780763  .00000180  00000+0  21806-3 0  9997
2 63169  88.9864 332.0082 0016206 100.7629 259.5354 13.61936876 31656
QIANFAN-84              
1 63170U 25046M   25229.52938405  .00000155  00000+0  22057-3 0  9999
2 63170  88.9864 332.1342 0017880 104.8607 255.4526 13.50968968 31570
QIANFAN-85              
1 63171U 25046N   25229.52539113  .00000144  00000+0  20449-3 0  9994
2 63171  88.9863 332.0068 0015268 107.2495 253.0328 13.50962679 31649
QIANFAN-86              
1 63172U 25046P   25229.53361414  .00000155  00000+0  22104-3 0  9995
2 63172  88.9866 331.8654 0013160 110.9933 249.2628 13.50963113 31721
QIANFAN-87              
1 63173U 25046Q   25229.57879764  .00000159  00000+0  22708-3 0  9996
2 63173  88.9862 331.9768 0013868 106.4565 253.8111 13.50959809 31669
QIANFAN-88              
1 63174U 25046R   25229.52131623  .00000134  00000+0  18918-3 0  9998
2 63174  88.9864 331.9344 0014247 113.5051 246.7599 13.50967122 31683
QIANFAN-89              
1 63175U 25046S   25229.55822460  .00000140  00000+0  19753-3 0  9993
2 63175  88.9864 332.1196 0018559 105.2039 255.1166 13.50967947 31584
QIANFAN-90              
1 63176U 25046T   25229.51295904  .00000103  00000+0  14141-3 0  9992
2 63176  88.9865 332.0964 0015490 103.8922 256.3953 13.50966644 31595
